P/2015 TP200 (LINEAR),e,8.7800,7.0146,82.5066,7.269348,0.0502876,0.53544886,94.7201,12/24.0/2021,2000,g 11.0,4.0
# From MPC115881
C/2015 V1 (PANSTARRS),e,139.2271,197.1581,179.6402,2069,0.0000105,0.99793366,0.0000,12/16.5109/2017,2000,g  6.5,4.0
# From MPC112390
C/2015 V2 (Johnson),h,06/11.3317/2017,49.8206,69.9680,164.9891,1.001773,1.647255,2000,5.0,4.0
# From MPC115881
C/2015 VL62 (Lemmon-Yeung-PANSTARRS),h,08/27.9415/2017,165.8209,95.1544,128.9193,1.001580,2.722696,2000,8.0,4.0
# From MPC101098
P/2015 W2 (Catalina),e,11.6076,294.2163,117.4933,7.292563,0.0500477,0.63459026,113.8533,12/24.0/2021,2000,g 13.0,4.0
# From MPEC 2021-N06
P/2015 X1 (PANSTARRS),e,12.1523,161.7599,218.8420,3.635321,0.1421968,0.41925020,323.4676,12/24.0/2021,2000,g 16.0,4.0
# From MPEC 2021-P47
C/2015 XY1 (Lemmon),h,04/26.5047/2018,148.8523,281.6021,196.1683,1.001135,7.922662,2000,5.5,4.0
# From MPC 97498
P/2015 X3 (PANSTARRS),e,24.3968,77.2867,306.6974,5.006915,0.0879729,0.43955798,204.7976,12/24.0/2021,2000,g 15.0,4.0
# From MPC119995
C/2015 X5 (PANSTARRS),h,12/28.1989/2017,124.3104,122.3343,27.5886,1.000417,6.794736,2000,7.5,4.0
# From MPC115881
P/2015 X6 (PANSTARRS),e,4.5645,106.9426,329.8254,2.753301,0.2157364,0.17278024,93.4057,12/24.0/2021,2000,g 16.0,4.0
# From MPEC 2021-P47
C/2016 A1 (PANSTARRS),h,11/21.6433/2017,121.2070,128.1978,10.1561,1.000188,5.318620,2000,6.0,4.0
# From MPC100282
P/2016 A2 (Christensen),e,26.4038,291.6174,141.3570,4.752833,0.0951207,0.27059408,226.8020,12/24.0/2021,2000,g 11.5,4.0
# From MPC115881
P/2016 A3 (PANSTARRS),e,8.5101,187.2397,340.9982,7.885616,0.0445093,0.38632073,75.7298,12/24.0/2021,2000,g 10.0,4.0
# From MPC102098
P/2016 A7 (PANSTARRS),e,16.6075,221.4967,352.5907,5.033766,0.0872699,0.56456381,186.0397,12/24.0/2021,2000,g 16.0,4.0
# From MPC107048
C/2016 B1 (NEOWISE),e,50.4190,232.0576,8.6735,425.1944,0.0001124,0.99242851,0.0000,12/03.8981/2016,2000,g  9.5,4.0
# From MPC109143
P/2016 BA14 (PANSTARRS),e,18.8940,180.5248,351.8940,3.024872,0.1873457,0.66513816,35.5358,12/24.0/2021,2000,g 21.0,4.0
# From MPC110494
C/2016 E1 (PANSTARRS),h,06/04.1282/2017,131.8744,233.1161,47.4666,1.006346,8.175534,2000,6.5,4.0
# From MPEC 2021-P47
P/2016 G1 (PANSTARRS),e,10.9713,204.0224,111.1250,2.582427,0.2374990,0.21101686,65.8101,12/24.0/2021,2000,g 14.0,4.0
# From MPEC 2017-D91
P/2016 J1-A (PANSTARRS),e,14.3286,199.8111,46.9833,3.172255,0.1744423,0.22777896,349.7627,12/24.0/2021,2000,g 16.5,4.0
# From MPEC 2017-A77
P/2016 J1-B (PANSTARRS),e,14.3314,199.8160,46.8743,3.171884,0.1744729,0.22762944,349.8988,12/24.0/2021,2000,g 17.0,4.0
# From MPC119995
C/2016 M1 (PANSTARRS),e,90.9466,92.2325,209.9299,43810,0.0000001,0.99994947,0.0000,08/10.5352/2018,2000,g  5.0,4.0
# From MPEC 2021-N06
C/2016 N4 (MASTER),e,72.6477,353.9905,55.9487,4115,0.0000037,0.99922312,0.0000,09/17.1433/2017,2000,g  8.5,4.0
# From MPEC 2021-P47
C/2016 N6 (PANSTARRS),e,105.8444,298.9693,162.6510,1153,0.0000252,0.99769040,0.0000,07/17.8116/2018,2000,g  7.0,4.0
# From MPC102099
P/2016 P1 (PANSTARRS),e,24.4561,319.5654,270.1309,3.193644,0.1726928,0.28909854,33.9568,12/24.0/2021,2000,g 15.0,4.0
# From MPEC 2021-W31
C/2016 Q2 (PANSTARRS),h,05/12.0803/2021,109.3880,322.2972,84.5415,1.001595,7.081904,2000,6.0,4.0
# From MPC102955
C/2016 Q4 (Kowalski),e,7.2524,271.2958,99.5324,16.97779,0.0140891,0.58241644,20.0699,12/24.0/2021,2000,g  7.0,4.0
# From MPEC 2021-N06
C/2016 R2 (PANSTARRS),e,58.2686,80.5410,33.1207,483.3050,0.0000928,0.99462091,0.0000,05/08.9909/2018,2000,g  7.0,4.0
# From MPC109144
P/2016 R4 (Gibbs),e,10.8773,168.2625,174.0758,5.331905,0.0800535,0.47641726,158.4912,12/24.0/2021,2000,g 12.5,4.0
# From MPC105543
P/2016 S1 (PANSTARRS),e,94.7040,227.5966,273.2776,8.277836,0.0413837,0.71000317,72.1729,12/24.0/2021,2000,g 12.0,4.0
# From MPC105238
C/2016 T1 (Matheny),e,129.8512,56.4053,137.5332,126.3121,0.0006943,0.98174765,0.0000,02/01.7275/2017,2000,g 14.5,4.0
# From MPC107685
C/2016 T2 (Matheny),e,81.4102,339.1966,92.1582,99.48826,0.0009932,0.98090607,0.0000,12/30.0266/2016,2000,g 14.5,4.0
# From MPC110082
C/2016 T3 (PANSTARRS),e,22.6966,271.6957,194.5927,129.4604,0.0006691,0.97958772,0.0000,09/06.5342/2017,2000,g 10.5,4.0
# From MPC103847
C/2016 U1 (NEOWISE),h,01/13.3761/2017,46.1772,61.6718,162.7764,1.000392,0.325051,2000,17.0,4.0
# From MPC106345
C/2016 VZ18 (PANSTARRS),e,24.0037,98.9288,36.3533,158.0110,0.0004962,0.99422273,0.0000,03/04.9340/2017,2000,g 19.5,4.0
# From MPC106345
P/2016 WM48 (Lemmon),e,117.5102,59.9141,36.1050,8.165877,0.0422377,0.78361042,74.5377,12/24.0/2021,2000,g 15.0,4.0
# From MPEC 2021-P47
C/2016 X1 (Lemmon),e,26.4536,256.3798,224.4770,1255,0.0000222,0.99397775,0.0000,04/27.9541/2019,2000,g  6.0,4.0
# From MPC108594
C/2017 A1 (PANSTARRS),e,49.8057,121.0259,1.9531,75.19861,0.0015114,0.96959597,2.5438,12/24.0/2021,2000,g 13.0,4.0
# From MPC108594
C/2017 A3 (Elenin),e,98.5092,97.8634,303.9384,43.36468,0.0034514,0.91141948,6.1711,12/24.0/2021,2000,g  9.5,4.0
# From MPC114598
C/2017 AB5 (PANSTARRS),e,32.4529,42.6150,78.2988,2274,0.0000091,0.99595029,0.0000,02/14.5817/2018,2000,g  5.5,4.0
# From MPEC 2021-W31
C/2017 B3 (LINEAR),h,02/02.2460/2019,54.1614,2.1766,284.8148,1.001051,3.925633,2000,6.0,4.0
# From MPC103847
P/2017 B4 (PANSTARRS),e,20.0584,121.4578,11.0197,4.410520,0.1064068,0.36495152,359.9130,01/05.0/2017,2000,g 14.5,4.0
# From MPC104793
C/2017 C1 (NEOWISE),e,65.7712,357.5970,109.9841,20.54966,0.0105803,0.92726114,19.0469,12/24.0/2021,2000,g 18.0,4.0
# From MPC107685
C/2017 C2 (PANSTARRS),e,118.5849,249.7062,138.5219,95.05597,0.0010635,0.97452863,0.0000,01/21.0788/2017,2000,g 14.0,4.0
# From MPC104793
P/2017 D1 (Fuls),e,20.7592,82.1816,7.9831,4.829062,0.0928774,0.43641982,186.6882,12/24.0/2021,2000,g 14.0,4.0
# From MPC112391
C/2017 D2 (Barros),e,31.2582,330.9470,334.6149,10212,0.0000010,0.99975558,0.0000,07/14.7643/2017,2000,g 11.0,4.0
# From MPC114598
C/2017 D3 (ATLAS),h,04/27.4683/2017,125.5905,186.7110,340.8254,1.002140,4.967446,2000,8.0,4.0
# From MPC110495
P/2017 D4 (PANSTARRS),e,10.5370,264.9378,212.2055,7.555661,0.0474565,0.62844845,91.8910,12/24.0/2021,2000,g 13.0,4.0
# From MPC104794
C/2017 D5 (PANSTARRS),e,131.0269,92.6596,287.6165,113.1563,0.0008188,0.98095907,0.0000,01/09.7139/2017,2000,g 16.0,4.0
# From MPC106346
C/2017 E1 (Borisov),h,04/10.5022/2017,14.5723,142.5644,152.7745,1.003229,0.905945,2000,14.0,4.0
# From MPEC 2021-P47
C/2017 E3 (PANSTARRS),h,06/07.4468/2017,70.6570,220.7838,334.4771,1.006051,5.937117,2000,6.5,4.0
# From MPC105239
C/2017 E4 (Lovejoy),h,04/23.4346/2017,87.9925,222.8302,87.0799,1.001487,0.491571,2000,17.0,4.0
# From MPC111769
C/2017 F1 (Lemmon),h,11/29.1360/2017,146.4601,158.7887,64.7268,1.002306,4.496999,2000,10.5,4.0
# From MPC114598
C/2017 F2 (PANSTARRS),h,11/26.3638/2017,42.5437,38.6914,134.9654,1.002464,6.928950,2000,7.5,4.0
# From MPC104794
P/2017 G1 (PANSTARRS),e,4.7781,249.6437,224.4484,7.280887,0.0501681,0.65309945,103.7069,12/24.0/2021,2000,g 13.5,4.0
# From MPC108595
P/2017 G2 (PANSTARRS),e,47.9510,79.8019,105.4980,8.058577,0.0430840,0.64768637,71.4243,12/24.0/2021,2000,g 13.0,4.0
# From MPEC 2021-P47
C/2017 G3 (PANSTARRS),e,159.0384,279.4608,73.0469,313.6918,0.0001774,0.99176481,0.0000,04/16.3414/2017,2000,g 14.0,4.0
# From MPC115882
C/2017 K1 (PANSTARRS),h,03/17.9674/2018,154.0198,225.7026,4.4362,1.003264,7.288030,2000,7.0,4.0
# From MPEC 2021-Y10
C/2017 K2 (PANSTARRS),h,12/19.6963/2022,87.5583,88.2373,236.1937,1.000682,1.797124,2000,1.5,4.0
# From MPEC 2021-N06
P/2017 K3 (Gasparovic),e,4.2730,354.2873,253.4464,5.583747,0.0746991,0.57975856,124.6706,12/24.0/2021,2000,g 14.5,4.0
# From MPC114598
C/2017 K4 (ATLAS),e,16.6743,298.8869,15.3071,28.64501,0.0064288,0.90727430,9.2928,12/24.0/2021,2000,g 10.0,4.0
# From MPEC 2021-P47
C/2017 K5 (PANSTARRS),h,03/27.1712/2020,82.2362,102.3733,172.0451,1.005636,7.682363,2000,5.0,4.0
# From MPC114599
C/2017 K6 (Jacques),e,57.2328,84.9695,303.7656,1142,0.0000255,0.99825216,0.0000,01/03.7712/2018,2000,g 11.0,4.0
# From MPEC 2021-P47
C/2017 M3 (PANSTARRS),e,77.5868,7.0361,110.2881,166.8271,0.0004574,0.97211117,0.0000,04/28.2767/2017,2000,g 10.5,4.0
# From MPEC 2021-Y10
C/2017 M4 (ATLAS),h,01/17.9585/2019,105.6477,65.9166,167.6171,1.001402,3.253603,2000,6.0,4.0
# From MPC118841
C/2017 M5 (TOTAS),h,06/04.4879/2018,15.8692,216.2884,92.8200,1.005478,5.999288,2000,6.5,4.0
# From MPC114599
C/2017 O1 (ASASSN),e,39.9578,25.7291,20.8356,365.7568,0.0001409,0.99592118,0.0000,10/15.4066/2017,2000,g 11.0,4.0
# From MPC114599
P/2017 P1 (PANSTARRS),e,7.6923,221.3846,122.5070,7.905136,0.0443445,0.31103113,56.8378,12/24.0/2021,2000,g 10.0,4.0
# From MPC114599
C/2017 P2 (PANSTARRS),e,50.0484,165.4577,132.4587,2484,0.0000080,0.99900524,0.0000,12/06.3675/2017,2000,g 10.0,4.0
# From MPC114599
P/2017 R1 (PANSTARRS),e,2.5745,143.6168,178.6937,4.135020,0.1172162,0.19566979,201.3228,12/24.0/2021,2000,g 13.5,4.0
# From MPC108595
C/2017 S2 (PANSTARRS),e,12.6719,62.3538,306.0523,20.60954,0.0105342,0.82471723,16.6080,12/24.0/2021,2000,g 13.0,4.0
# From MPC114599
C/2017 S3 (PANSTARRS),h,08/16.3133/2018,99.2027,171.3021,255.8107,1.000067,0.206799,2000,11.0,4.0
# From MPC109591
C/2017 S6 (Catalina),h,02/26.1671/2018,152.8670,131.0602,134.9074,1.000771,1.548332,2000,12.5,4.0
# From MPC114599
C/2017 S7 (Lemmon),e,124.2250,262.7480,187.5251,8761,0.0000012,0.99913182,0.0000,05/24.0825/2017,2000,g  7.0,4.0
# From MPC114599
P/2017 S8 (PANSTARRS),e,29.8507,191.5298,254.7789,2.780813,0.2125428,0.39126410,303.4155,12/24.0/2021,2000,g 16.0,4.0
# From MPC107050
P/2017 S9 (PANSTARRS),e,14.1440,146.2230,237.6886,3.153813,0.1759747,0.30540305,284.2286,12/24.0/2021,2000,g 17.0,4.0
# From MPC114600
C/2017 T1 (Heinze),e,96.8725,102.4236,96.9937,12172,0.0000007,0.99995195,0.0000,02/20.8361/2018,2000,g 14.5,4.0
# From MPEC 2021-Y10
C/2017 T2 (PANSTARRS),e,57.2334,64.3822,92.9845,2061,0.0000105,0.99921618,0.0000,05/04.8476/2020,2000,g  5.0,4.0
# From MPC114600
C/2017 T3 (ATLAS),e,88.1566,230.1514,246.8238,1178,0.0000244,0.99929985,0.0000,07/18.8735/2018,2000,g 10.0,4.0
